GOES 15                 
1 36411U 10008A   22243.53582025  .00000055  00000+0  00000+0 0  9995
2 36411   0.3993 276.6255 0004779 249.4541 238.5751  1.00276344 45760
COMS 1                  
1 36744U 10032A   22242.83104889 -.00000342  00000+0  00000+0 0  9991
2 36744   1.2626  92.1062 0000934  58.5061 255.7054  1.00271077 37186
FENGYUN 3B              
1 37214U 10059A   22243.48557588 -.00000008  00000+0  19928-4 0  9996
2 37214  99.0937 250.7955 0022739 141.6374 218.6427 14.14263221611563
SUOMI NPP               
1 37849U 11061A   22243.49096598  .00000021  00000+0  30837-4 0  9990
2 37849  98.7344 181.0106 0001245  82.7971  44.2531 14.19540292561830
FENGYUN 2F              
1 38049U 12002A   22243.65762204 -.00000354  00000+0  00000+0 0  9995
2 38049   3.9689  79.0942 0000460 110.9068 138.5929  1.00264646 38992
METEOSAT-10 (MSG-3)     
1 38552U 12035B   22243.34183904  .00000064  00000+0  00000+0 0  9997
2 38552   1.6334  45.1484 0000454  52.9805  13.6926  1.00275485 37324
METOP-B                 
1 38771U 12049A   22243.45992771  .00000031  00000+0  34125-4 0  9991
2 38771  98.6897 302.0808 0001233 133.4104 343.0521 14.21503925516384
FENGYUN 3C              
1 39260U 13052A   22243.38690573  .00000038  00000+0  40051-4 0  9999
2 39260  98.4513 267.6957 0012161  61.5437 298.6965 14.15939169462523
METEOR-M 2              
1 40069U 14037A   22243.46907121 -.00000004  00000+0  17480-4 0  9995
2 40069  98.4313 257.8491 0006838 102.1339 258.0608 14.20716719422510
HIMAWARI-8              
1 40267U 14060A   22243.54520132 -.00000273  00000+0  00000+0 0  9996
2 40267   0.0181 186.6329 0001097 323.4345 166.5639  1.00271917 28966
FENGYUN 2G              
1 40367U 14090A   22242.90146128 -.00000296  00000+0  00000+0 0  9993
2 40367   2.1160  88.7370 0000550 258.4575  55.6837  1.00260556 28099
METEOSAT-11 (MSG-4)     
1 40732U 15034A   22243.33992062 -.00000005  00000+0  00000+0 0  9990
2 40732   0.4444  70.1295 0001062  43.3983 347.9169  1.00270304 26124
ELEKTRO-L 2             
1 41105U 15074A   22242.90667348 -.00000113  00000+0  00000+0 0  9997
2 41105   3.1704  87.2776 0002386 101.5708 102.1823  1.00271936 24615
HIMAWARI-9              
1 41836U 16064A   22242.85076796 -.00000273  00000+0  00000+0 0  9990
2 41836   0.0404 306.0372 0000688 190.6495 289.3744  1.00270619 21285
GOES 16                 
1 41866U 16071A   22242.82278675 -.00000246  00000+0  00000+0 0  9998
2 41866   0.0677 280.3674 0000437 276.9210   2.7027  1.00272433 21214
FENGYUN 4A              
1 41882U 16077A   22242.93039199 -.00000328  00000+0  00000+0 0  9991
2 41882   0.1542  86.0352 0002159  58.0637 274.5181  1.00276485 21089
CYGFM05                 
1 41884U 16078A   22242.89974033  .00001730  00000+0  87934-4 0  9997
2 41884  34.9560  98.0634 0014532  34.3696 325.7953 15.16638653316198
CYGFM04                 
1 41885U 16078B   22242.85968805  .00001707  00000+0  85490-4 0  9993
2 41885  34.9492  87.1262 0012793  51.9170 308.2694 15.17176788316137
CYGFM02                 
1 41886U 16078C   22242.84859809  .00001761  00000+0  88067-4 0  9999
2 41886  34.9583  89.4278 0013537  45.6216 314.5603 15.17214949316210
CYGFM01                 
1 41887U 16078D   22242.77951650  .00001740  00000+0  88878-4 0  9996
2 41887  34.9526 101.3236 0014981  32.7514 327.4124 15.16443652316022
CYGFM08                 
1 41888U 16078E   22242.80686932  .00001715  00000+0  86470-4 0  9997
2 41888  34.9496  93.4536 0014032  45.4042 314.7813 15.16918431316168
CYGFM06                 
1 41889U 16078F   22242.76236409  .00001854  00000+0  92604-4 0  9993
2 41889  34.9577  88.6327 0012533  44.4817 315.6900 15.17230791316148
CYGFM07                 
1 41890U 16078G   22242.88163630  .00001821  00000+0  91147-4 0  9998
2 41890  34.9516  86.7386 0012273  50.3597 309.8196 15.17162628316144
CYGFM03                 
1 41891U 16078H   22242.88042753  .00001809  00000+0  90534-4 0  9996
2 41891  34.9548  87.2390 0011825  47.9782 312.1935 15.17168079316134
FENGYUN 3D              
1 43010U 17072A   22243.43592899  .00000006  00000+0  23977-4 0  9994
2 43010  98.8188 187.6780 0002817  57.3404 302.8038 14.19219479248409
NOAA 20                 
1 43013U 17073A   22243.43011132  .00000029  00000+0  34471-4 0  9990
2 43013  98.7183 180.8203 0000988 112.7785 247.3496 14.19540386247860
GOES 17                 
1 43226U 18022A   22242.66678527  .00000100  00000+0  00000+0 0  9998
2 43226   0.0991 279.0395 0000263 224.1277 298.3962  1.00273007 16511
FENGYUN 2H              
1 43491U 18050A   22243.42750134 -.00000122  00000+0  00000+0 0  9998
2 43491   1.3312  95.7333 0004297  47.9131  68.8081  1.00267110 15612
METOP-C                 
1 43689U 18087A   22243.40376591  .00000036  00000+0  36123-4 0  9999
2 43689  98.6779 302.1510 0003006 161.0673 199.0616 14.21503866197952
GEO-KOMPSAT-2A          
1 43823U 18100A   22243.53846531 -.00000342  00000+0  00000+0 0  9996
2 43823   0.0408 336.2908 0001978 139.3787 186.1206  1.00269356 13761
METEOR-M2 2             
1 44387U 19038A   22243.42017264 -.00000008  00000+0  15762-4 0  9999
2 44387  98.7287 203.6208 0002369  68.4209 291.7223 14.23718037164079
FENGYUN 3E              
1 49008U 21062A   22243.42809311 -.00000018  00000+0  12176-4 0  9993
2 49008  98.7134 244.2109 0002661 114.5068 245.6389 14.19736967 59955
GOES 18                 
1 51850U 22021A   22243.52580984  .00000099  00000+0  00000+0 0  9996
2 51850   0.0286  56.7954 0002812 153.4454 181.7418  1.00272157  1918
COSMOS 2558             
1 53323U 22089A   22242.92977147  .00011197  00000+0  26842-3 0  9998
2 53323  97.2350 340.8345 0011996 160.8043 199.3658 15.41494896  4487
SL-4 R/B                
1 53324U 22089B   22242.85578290  .00057513  31498-5  29681-3 0  9994
2 53324  97.2526 342.2477 0095989 320.1222  39.3016 15.74628325  4561
2022-090A               
1 53346U 22090A   22243.48950231  .00002042  00000+0  95503-4 0  9992
2 53346  97.4707 316.1335 0007568 147.7993  44.9013 15.20894435  4168
2022-090B               
1 53347U 22090B   22243.51847478  .00005550  00000+0  23305-3 0  9992
2 53347  97.4703 316.2195 0013310 176.4611 308.8155 15.23787141  4165
2022-090C               
1 53348U 22090C   22243.51718363  .00007694  00000+0  32063-3 0  9995
2 53348  97.4695 316.2178 0012706 178.6626 306.7889 15.23923413  4160
CZ-4B R/B               
1 53349U 22090D   22243.49958660  .00038204  26677-5  26066-3 0  9990
2 53349  97.5137 317.9454 0150468 288.6914  69.8063 15.61129812  4274
SBIRS GEO-6 (USA 336)   
1 53355U 22092A   22243.51462461  .00000119  00000+0  00000+0 0  9997
2 53355   6.5538 312.3586 0002045 333.2288  94.4312  1.00260943   332
ATLAS 5 CENTAUR R/B     
1 53356U 22092B   22242.74530083 -.00000017  00000+0  00000+0 0  9996
2 53356  16.4236 310.2134 5658621 182.5381 172.3958  1.99524803   524
PRC TEST SPACECRAFT2    
1 53357U 22093A   22243.52405007  .00001780  00000+0  46080-4 0  9992
2 53357  49.9942  30.1906 0177860 257.8344 100.2641 15.30907132  4125
CZ-2F R/B               
1 53358U 22093B   22242.79550631  .00007165  00000+0  14255-3 0  9996
2 53358  49.9915  33.6987 0179010 256.4952 101.6006 15.32666941  4001
CZ-2F DEB               
1 53359U 22093C   22243.47226583  .00093657  00000+0  16462-2 0  9991
2 53359  50.3071  32.6329 0226854 273.7672  83.7378 15.26138984  4095
CZ-2F DEB               
1 53360U 22093D   22243.41617594  .00090477  00000+0  17595-2 0  9998
2 53360  50.3310  33.8041 0238925 267.1367  90.2227 15.21581472  4069
CZ-2F DEB               
1 53361U 22093E   22242.83401395  .00074899  00000+0  19341-2 0  9995
2 53361  49.7539  40.0854 0332395 253.4304 102.9889 14.97625291  3921
CZ-2F DEB               
1 53362U 22093F   22243.22464778  .00079676  00000+0  21164-2 0  9998
2 53362  49.8075  38.9211 0345419 251.4941 104.8178 14.94444678  3979
CZ-2F DEB               
1 53363U 22093G   22242.76747246  .01140316  39127-3  95543-2 0  9990
2 53363  50.0342  31.9499 0150475 270.6744  87.7429 15.55903060  4031
CZ-2F DEB               
1 53364U 22093H   22242.76078846  .00000460  00000+0  53739-4 0  9995
2 53364  50.0293  40.2117 0110594 303.2706  55.7663 15.00052018  3915
DANURI (KPLO)           
1 53365U 22094A   22216.96995833  .00001843 -58274-5  00000+0 0  9991
2 53365  29.5000 147.2458 0003300 140.4700 307.5200 16.09976711    07
2022-095A               
1 53367U 22095A   22243.44015046  .00004631  00000+0  17571-3 0  9996
2 53367  97.4091 317.1245 0078531   0.2271 192.8386 15.24473205  3390
2022-095B               
1 53368U 22095B   22243.42602682  .00004519  00000+0  17037-3 0  9995
2 53368  97.4084 317.1166 0078720 359.5680 132.4307 15.24678975  3382
2022-095C               
1 53369U 22095C   22243.47621910  .00002870  00000+0  10916-3 0  9993
2 53369  97.4086 317.1705 0078662 358.9598  56.3028 15.24738930  3393
2022-096A               
1 53370U 22096A   22243.51598642  .00001954  00000+0  82905-4 0  9996
2 53370  97.4341 144.8076 0001900  85.4815  39.7477 15.24303041  3406
2022-096B               
1 53371U 22096B   22243.51362358  .00003342  00000+0  13890-3 0  9999
2 53371  97.4348 144.8128 0003308  92.5584  32.6442 15.24498301  3406
2022-096C               
1 53372U 22096C   22243.44614531  .00003087  00000+0  12849-3 0  9994
2 53372  97.4353 144.7450 0003230  94.8366  21.1397 15.24505117  3379
RS29S (SXC3-2110 CYCLO*)
1 53373U 22096D   22243.44486333  .00004877  00000+0  20038-3 0  9999
2 53373  97.4350 144.7465 0003667  94.4208  22.9851 15.24649904  3375
RS32S (SXC3-212 MONITO*)
1 53374U 22096E   22243.44369134  .00004986  00000+0  20417-3 0  9991
2 53374  97.4344 144.7496 0003701  89.6109  29.7688 15.24757744  3373
RS34S (SXC3-218 KUZBAS*)
1 53375U 22096F   22243.51019881  .00004488  00000+0  18409-3 0  9996
2 53375  97.4343 144.8162 0003730  88.8769  36.3527 15.24755816  3384
